{
  "schema": "int-telemetry-real-tle-snapshot/v1",
  "source": "celestrak",
  "group": "IRIDIUM-NEXT",
  "format": "celestrak-gp-json",
  "source_url": "https://celestrak.org/NORAD/elements/gp.php?GROUP=IRIDIUM-NEXT&FORMAT=JSON",
  "downloaded_at": "2026-07-07T06:33:54.787Z",
  "generated_at": "2026-07-07T06:33:56.153Z",
  "fingerprint": "75f53801",
  "shell_id": "iridium-next-real-86.4deg-785km",
  "catalog_count": 80,
  "shell_count": 67,
  "selected_count": 66,
  "mean_altitude_km": 784.8,
  "mean_inclination_deg": 86.3965,
  "mean_mean_motion_rev_per_day": 14.34218389,
  "layout": {
    "planes": 6,
    "satellites_per_plane": 11,
    "selection_strategy": "target-shell-raan-clusters-even-slot-sampling",
    "raan_cluster_threshold_deg": 6,
    "target_inclination_deg": 86.4,
    "target_altitude_km": 781,
    "selected_shell_key": "86.5deg-800km",
    "target_shell_distance": 4.16
  },
  "satellites": [
    {
      "satellite_id": "P03-S03",
      "norad_id": 41918,
      "satellite_name": "IRIDIUM 103",
      "cospar_id": "2017-003B",
      "shell_id": "iridium-next-real-86.4deg-785km",
      "plane_id": 2,
      "slot_id": 2,
      "epoch": "2026-07-06T16:30:22.159008",
      "inclination": 86.3949,
      "raan": 80.30309999999997,
      "eccentricity": 0.0001912,
      "argument_of_perigee": 79.28700000000003,
      "mean_anomaly": 280.8541,
      "mean_motion": 14.34217589,
      "bstar": -0.0000068471,
      "status": "active",
      "raw_omm": {
        "OBJECT_NAME": "IRIDIUM 103",
        "OBJECT_ID": "2017-003B",
        "EPOCH": "2026-07-06T16:30:22.159008",
        "MEAN_MOTION": 14.34217589,
        "ECCENTRICITY": 0.0001912,
        "INCLINATION": 86.3949,
        "RA_OF_ASC_NODE": 80.3031,
        "ARG_OF_PERICENTER": 79.287,
        "MEAN_ANOMALY": 280.8541,
        "EPHEMERIS_TYPE": 0,
        "CLASSIFICATION_TYPE": "U",
        "NORAD_CAT_ID": 41918,
        "ELEMENT_SET_NO": 999,
        "REV_AT_EPOCH": 49602,
        "BSTAR": -0.0000068471,
        "MEAN_MOTION_DOT": 1e-8,
        "MEAN_MOTION_DDOT": 0
      },
      "source": "celestrak",
      "source_url": "https://celestrak.org/NORAD/elements/gp.php?GROUP=IRIDIUM-NEXT&FORMAT=JSON",
      "catalog_fingerprint": "75f53801"
    },
    {
      "satellite_id": "P03-S04",
      "norad_id": 41923,
      "satellite_name": "IRIDIUM 114",
      "cospar_id": "2017-003G",
      "shell_id": "iridium-next-real-86.4deg-785km",
      "plane_id": 2,
      "slot_id": 3,
      "epoch": "2026-07-06T16:21:14.164416",
      "inclination": 86.3952,
      "raan": 80.31470000000002,
      "eccentricity": 0.0002162,
      "argument_of_perigee": 80.73140000000001,
      "mean_anomaly": 279.4126,
      "mean_motion": 14.34217479,
      "bstar": 0.000074912,
      "status": "active",
      "raw_omm": {
        "OBJECT_NAME": "IRIDIUM 114",
        "OBJECT_ID": "2017-003G",
        "EPOCH": "2026-07-06T16:21:14.164416",
        "MEAN_MOTION": 14.34217479,
        "ECCENTRICITY": 0.0002162,
        "INCLINATION": 86.3952,
        "RA_OF_ASC_NODE": 80.3147,
        "ARG_OF_PERICENTER": 80.7314,
        "MEAN_ANOMALY": 279.4126,
        "EPHEMERIS_TYPE": 0,
        "CLASSIFICATION_TYPE": "U",
        "NORAD_CAT_ID": 41923,
        "ELEMENT_SET_NO": 999,
        "REV_AT_EPOCH": 49604,
        "BSTAR": 0.000074912,
        "MEAN_MOTION_DOT": 0.0000023,
        "MEAN_MOTION_DDOT": 0
      },
      "source": "celestrak",
      "source_url": "https://celestrak.org/NORAD/elements/gp.php?GROUP=IRIDIUM-NEXT&FORMAT=JSON",
      "catalog_fingerprint": "75f53801"
    },
    {
      "satellite_id": "P03-S05",
      "norad_id": 41922,
      "satellite_name": "IRIDIUM 104",
      "cospar_id": "2017-003F",
      "shell_id": "iridium-next-real-86.4deg-785km",
      "plane_id": 2,
      "slot_id": 4,
      "epoch": "2026-07-06T17:52:33.991104",
      "inclination": 86.3953,
      "raan": 80.30509999999998,
      "eccentricity": 0.0002211,
      "argument_of_perigee": 77.39600000000002,
      "mean_anomaly": 282.7483,
      "mean_motion": 14.34218553,
      "bstar": 0.000062126,
      "status": "active",
      "raw_omm": {
        "OBJECT_NAME": "IRIDIUM 104",
        "OBJECT_ID": "2017-003F",
        "EPOCH": "2026-07-06T17:52:33.991104",
        "MEAN_MOTION": 14.34218553,
        "ECCENTRICITY": 0.0002211,
        "INCLINATION": 86.3953,
        "RA_OF_ASC_NODE": 80.3051,
        "ARG_OF_PERICENTER": 77.396,
        "MEAN_ANOMALY": 282.7483,
        "EPHEMERIS_TYPE": 0,
        "CLASSIFICATION_TYPE": "U",
        "NORAD_CAT_ID": 41922,
        "ELEMENT_SET_NO": 999,
        "REV_AT_EPOCH": 49607,
        "BSTAR": 0.000062126,
        "MEAN_MOTION_DOT": 0.00000194,
        "MEAN_MOTION_DDOT": 0
      },
      "source": "celestrak",
      "source_url": "https://celestrak.org/NORAD/elements/gp.php?GROUP=IRIDIUM-NEXT&FORMAT=JSON",
      "catalog_fingerprint": "75f53801"
    },
    {
      "satellite_id": "P03-S06",
      "norad_id": 41925,
      "satellite_name": "IRIDIUM 112",
      "cospar_id": "2017-003J",
      "shell_id": "iridium-next-real-86.4deg-785km",
      "plane_id": 2,
      "slot_id": 5,
      "epoch": "2026-07-06T17:43:26.083776",
      "inclination": 86.3947,
      "raan": 80.132,
      "eccentricity": 0.0002245,
      "argument_of_perigee": 82.10660000000001,
      "mean_anomaly": 278.0384,
      "mean_motion": 14.34218636,
      "bstar": 0.000042558,
      "status": "active",
      "raw_omm": {
        "OBJECT_NAME": "IRIDIUM 112",
        "OBJECT_ID": "2017-003J",
        "EPOCH": "2026-07-06T17:43:26.083776",
        "MEAN_MOTION": 14.34218636,
        "ECCENTRICITY": 0.0002245,
        "INCLINATION": 86.3947,
        "RA_OF_ASC_NODE": 80.132,
        "ARG_OF_PERICENTER": 82.1066,
        "MEAN_ANOMALY": 278.0384,
        "EPHEMERIS_TYPE": 0,
        "CLASSIFICATION_TYPE": "U",
        "NORAD_CAT_ID": 41925,
        "ELEMENT_SET_NO": 999,
        "REV_AT_EPOCH": 49607,
        "BSTAR": 0.000042558,
        "MEAN_MOTION_DOT": 0.00000139,
        "MEAN_MOTION_DDOT": 0
      },
      "source": "celestrak",
      "source_url": "https://celestrak.org/NORAD/elements/gp.php?GROUP=IRIDIUM-NEXT&FORMAT=JSON",
      "catalog_fingerprint": "75f53801"
    },
    {
      "satellite_id": "P03-S07",
      "norad_id": 41920,
      "satellite_name": "IRIDIUM 102",
      "cospar_id": "2017-003D",
      "shell_id": "iridium-next-real-86.4deg-785km",
      "plane_id": 2,
      "slot_id": 6,
      "epoch": "2026-07-06T19:14:46.218912",
      "inclination": 86.3951,
      "raan": 80.23840000000001,
      "eccentricity": 0.0002281,
      "argument_of_perigee": 85.0865,
      "mean_anomaly": 275.05909999999994,
      "mean_motion": 14.34217759,
      "bstar": -0.0000012444,
      "status": "active",
      "raw_omm": {
        "OBJECT_NAME": "IRIDIUM 102",
        "OBJECT_ID": "2017-003D",
        "EPOCH": "2026-07-06T19:14:46.218912",
        "MEAN_MOTION": 14.34217759,
        "ECCENTRICITY": 0.0002281,
        "INCLINATION": 86.3951,
        "RA_OF_ASC_NODE": 80.2384,
        "ARG_OF_PERICENTER": 85.0865,
        "MEAN_ANOMALY": 275.0591,
        "EPHEMERIS_TYPE": 0,
        "CLASSIFICATION_TYPE": "U",
        "NORAD_CAT_ID": 41920,
        "ELEMENT_SET_NO": 999,
        "REV_AT_EPOCH": 49609,
        "BSTAR": -0.0000012444,
        "MEAN_MOTION_DOT": 1.6e-7,
        "MEAN_MOTION_DDOT": 0
      },
      "source": "celestrak",
      "source_url": "https://celestrak.org/NORAD/elements/gp.php?GROUP=IRIDIUM-NEXT&FORMAT=JSON",
      "catalog_fingerprint": "75f53801"
    },
    {
      "satellite_id": "P03-S08",
      "norad_id": 41926,
      "satellite_name": "IRIDIUM 111",
      "cospar_id": "2017-003K",
      "shell_id": "iridium-next-real-86.4deg-785km",
      "plane_id": 2,
      "slot_id": 7,
      "epoch": "2026-07-06T19:05:38.105088",
      "inclination": 86.395,
      "raan": 80.1791,
      "eccentricity": 0.0002195,
      "argument_of_perigee": 84.41550000000001,
      "mean_anomaly": 275.7291,
      "mean_motion": 14.34217934,
      "bstar": 0.000031079,
      "status": "active",
      "raw_omm": {
        "OBJECT_NAME": "IRIDIUM 111",
        "OBJECT_ID": "2017-003K",
        "EPOCH": "2026-07-06T19:05:38.105088",
        "MEAN_MOTION": 14.34217934,
        "ECCENTRICITY": 0.0002195,
        "INCLINATION": 86.395,
        "RA_OF_ASC_NODE": 80.1791,
        "ARG_OF_PERICENTER": 84.4155,
        "MEAN_ANOMALY": 275.7291,
        "EPHEMERIS_TYPE": 0,
        "CLASSIFICATION_TYPE": "U",
        "NORAD_CAT_ID": 41926,
        "ELEMENT_SET_NO": 999,
        "REV_AT_EPOCH": 49606,
        "BSTAR": 0.000031079,
        "MEAN_MOTION_DOT": 0.00000107,
        "MEAN_MOTION_DDOT": 0
      },
      "source": "celestrak",
      "source_url": "https://celestrak.org/NORAD/elements/gp.php?GROUP=IRIDIUM-NEXT&FORMAT=JSON",
      "catalog_fingerprint": "75f53801"
    }
  ]
}